NORAD_CAT_ID,OBJECT_NAME,OBJECT_TYPE,EPOCH,MEAN_MOTION,ECCENTRICITY,INCLINATION,RA_OF_ASC_NODE,ARG_OF_PERICENTER,MEAN_ANOMALY,BSTAR,MEAN_MOTION_DOT,MEAN_MOTION_DDOT,TLE_LINE0,TLE_LINE1,TLE_LINE2,SEMIMAJOR_AXIS,PERIOD,APOGEE,PERIGEE,DECAYED
55637.0,STARLINK-5062,PAYLOAD,2023-11-27 15:00:39,14.98328682,0.0002516,70.0004,125.0248,254.5532,105.5349,-2.8427e-05,-4.32e-06,0.0,0 STARLINK-5062,1 55637U 23021K   23331.62545290 -.00000432  00000-0 -28427-4 0  9997,2 55637  70.0004 125.0248 0002516 254.5532 105.5349 14.98328682 44007,6950.197,96.107,573.811,570.313,0.0
55637.0,STARLINK-5062,PAYLOAD,2023-11-27 18:12:55,14.98326393,0.0002676,70.0,124.6873,261.7434,98.3422,-5.0766e-05,-6.99e-06,0.0,0 STARLINK-5062,1 55637U 23021K   23331.75897547 -.00000699  00000-0 -50766-4 0  9992,2 55637  70.0000 124.6873 0002676 261.7434  98.3422 14.98326393 44020,6950.204,96.107,573.929,570.209,0.0
55637.0,STARLINK-5062,PAYLOAD,2023-11-28 13:26:31,14.98330439,0.0002835,69.9999,122.6675,265.8663,94.2172,-1.9213e-05,-3.22e-06,0.0,0 STARLINK-5062,1 55637U 23021K   23332.56009164 -.00000322  00000-0 -19213-4 0  9997,2 55637  69.9999 122.6675 0002835 265.8663  94.2172 14.98330439 44144,6950.192,96.107,574.027,570.086,0.0
55637.0,STARLINK-5062,PAYLOAD,2023-11-28 19:51:03,14.98332688,0.000276,70.0001,121.9945,261.3704,98.7142,1.5005e-05,8.6e-07,0.0,0 STARLINK-5062,1 55637U 23021K   23332.82712880  .00000086  00000-0  15005-4 0  9992,2 55637  70.0001 121.9945 0002760 261.3704  98.7142 14.98332688 43881,6950.185,96.107,573.968,570.131,0.0
55637.0,STARLINK-5062,PAYLOAD,2023-11-29 13:28:33,14.98324106,0.0002821,70.0004,120.1428,263.6603,96.4235,2.4887e-06,-6.3e-07,0.0,0 STARLINK-5062,1 55637U 23021K   23333.56149487 -.00000063  00000-0  24887-5 0  9996,2 55637  70.0004 120.1428 0002821 263.6603  96.4235 14.98324106 44292,6950.211,96.107,574.037,570.115,0.0
55637.0,STARLINK-5062,PAYLOAD,2023-11-29 19:53:05,14.9832774,0.0002868,70.0,119.4688,266.0083,94.0748,3.6273e-05,3.4e-06,0.0,0 STARLINK-5062,1 55637U 23021K   23333.82853261  .00000340  00000-0  36273-4 0  9995,2 55637  70.0000 119.4688 0002868 266.0083  94.0748 14.98327740 44039,6950.2,96.107,574.058,570.072,0.0
55637.0,STARLINK-5062,PAYLOAD,2023-11-30 19:55:05,14.98347115,0.0002695,70.0003,116.9446,266.1068,93.9783,-0.00022185,-2.74e-05,0.0,0 STARLINK-5062,1 55637U 23021K   23334.82992594 -.00002740  00000-0 -22185-3 0  9993,2 55637  70.0003 116.9446 0002695 266.1068  93.9783 14.98347115 44189,6950.14,96.106,573.878,570.132,0.0
55637.0,STARLINK-5062,PAYLOAD,2023-12-01 11:56:26,14.98319347,0.0001935,70.001,115.2619,265.6292,94.4646,0.00017694,2.018e-05,0.0,0 STARLINK-5062,1 55637U 23021K   23335.49753373  .00002018  00000-0  17694-3 0  9992,2 55637  70.0010 115.2619 0001935 265.6292  94.4646 14.98319347 44281,6950.226,96.108,573.436,570.746,0.0
55637.0,STARLINK-5062,PAYLOAD,2023-12-01 19:57:06,14.98325839,0.0001876,70.0012,114.4202,257.1497,102.9452,0.00020479,2.351e-05,0.0,0 STARLINK-5062,1 55637U 23021K   23335.83132997  .00002351  00000-0  20479-3 0  9998,2 55637  70.0012 114.4202 0001876 257.1497 102.9452 14.98325839 44631,6950.206,96.107,573.375,570.767,0.0
55637.0,STARLINK-5062,PAYLOAD,2023-12-02 11:58:26,14.98335389,0.0002443,70.0011,112.7375,262.3636,97.7246,0.00011535,1.284e-05,0.0,0 STARLINK-5062,1 55637U 23021K   23336.49892165  .00001284  00000-0  11535-3 0  9998,2 55637  70.0011 112.7375 0002443 262.3636  97.7246 14.98335389 44437,6950.176,96.107,573.739,570.343,0.0
55637.0,STARLINK-5062,PAYLOAD,2023-12-02 13:34:35,14.98321654,0.0002718,70.001,112.5691,264.6636,95.4213,0.00031232,3.635e-05,0.0,0 STARLINK-5062,1 55637U 23021K   23336.56568414  .00003635  00000-0  31232-3 0  9991,2 55637  70.0010 112.5691 0002718 264.6636  95.4213 14.98321654 44748,6950.219,96.108,573.973,570.195,0.0
55637.0,STARLINK-5062,PAYLOAD,2023-12-02 18:22:58,14.98334141,0.0002445,70.0007,112.0654,246.6142,113.476,0.00016724,1.903e-05,0.0,0 STARLINK-5062,1 55637U 23021K   23336.76595954  .00001903  00000-0  16724-3 0  9997,2 55637  70.0007 112.0654 0002445 246.6142 113.4760 14.98334141 44773,6950.18,96.107,573.744,570.346,0.0
55637.0,STARLINK-5062,PAYLOAD,2023-12-03 12:00:29,14.98309637,0.000284,70.0006,110.2119,254.7504,105.3341,-0.00024995,-3.072e-05,0.0,0 STARLINK-5062,1 55637U 23021K   23337.50034660 -.00003072  00000-0 -24995-3 0  9992,2 55637  70.0006 110.2119 0002840 254.7504 105.3341 14.98309637 44585,6950.256,96.108,574.095,570.147,0.0
55637.0,STARLINK-5062,PAYLOAD,2023-12-03 13:36:38,14.98309541,0.0003028,70.0002,110.0436,261.2783,98.8033,-0.00023592,-2.905e-05,0.0,0 STARLINK-5062,1 55637U 23021K   23337.56710718 -.00002905  00000-0 -23592-3 0  9999,2 55637  70.0002 110.0436 0003028 261.2783  98.8033 14.98309541 44894,6950.256,96.108,574.226,570.017,0.0
55637.0,STARLINK-5062,PAYLOAD,2023-12-04 12:02:30,14.98318487,0.0002875,70.0012,107.6895,254.0376,106.0466,-0.00015909,-1.99e-05,0.0,0 STARLINK-5062,1 55637U 23021K   23338.50174679 -.00001990  00000-0 -15909-3 0  9990,2 55637  70.0012 107.6895 0002875 254.0376 106.0466 14.98318487 44737,6950.228,96.108,574.092,570.095,0.0
55637.0,STARLINK-5062,PAYLOAD,2023-12-04 18:27:03,14.98319587,0.0002728,70.0016,107.0165,245.2199,114.8677,-0.00012347,-1.565e-05,0.0,0 STARLINK-5062,1 55637U 23021K   23338.76878690 -.00001565  00000-0 -12347-3 0  9993,2 55637  70.0016 107.0165 0002728 245.2199 114.8677 14.98319587 45078,6950.225,96.108,573.986,570.194,0.0
55637.0,STARLINK-5062,PAYLOAD,2023-12-05 12:04:32,14.98305648,0.000331,69.9985,105.1591,266.4863,93.5918,8.5484e-05,9.26e-06,0.0,0 STARLINK-5062,1 55637U 23021K   23339.50315701  .00000926  00000-0  85484-4 0  9996,2 55637  69.9985 105.1591 0003310 266.4863  93.5918 14.98305648 44885,6950.268,96.109,574.434,569.833,0.0
55637.0,STARLINK-5062,PAYLOAD,2023-12-05 18:29:05,14.98306228,0.0002622,70.0002,104.487,242.5383,117.5509,0.0001074,1.188e-05,0.0,0 STARLINK-5062,1 55637U 23021K   23339.77019934  .00001188  00000-0  10740-3 0  9997,2 55637  70.0002 104.4870 0002622 242.5383 117.5509 14.98306228 45224,6950.266,96.109,573.954,570.309,0.0
55637.0,STARLINK-5062,PAYLOAD,2023-12-06 12:06:31,14.98347663,0.0002641,69.9991,102.6331,248.9978,111.0899,0.00028218,3.277e-05,0.0,0 STARLINK-5062,1 55637U 23021K   23340.50452765  .00003277  00000-0  28218-3 0  9993,2 55637  69.9991 102.6331 0002641 248.9978 111.0899 14.98347663 45039,6950.138,96.106,573.839,570.168,0.0
55637.0,STARLINK-5062,PAYLOAD,2023-12-06 18:31:02,14.98352065,0.0003208,69.9984,101.9593,268.1133,91.9659,0.00032085,3.74e-05,0.0,0 STARLINK-5062,1 55637U 23021K   23340.77156122  .00003740  00000-0  32085-3 0  9992,2 55637  69.9984 101.9593 0003208 268.1133  91.9659 14.98352065 45379,6950.125,96.106,574.219,569.76,0.0
55637.0,STARLINK-5062,PAYLOAD,2023-12-07 12:08:32,14.98336969,0.0003063,69.997,100.1071,266.2492,93.8317,0.00016762,1.908e-05,0.0,0 STARLINK-5062,1 55637U 23021K   23341.50592920  .00001908  00000-0  16762-3 0  9992,2 55637  69.9970 100.1071 0003063 266.2492  93.8317 14.98336969 45188,6950.171,96.107,574.165,569.908,0.0
55637.0,STARLINK-5062,PAYLOAD,2023-12-08 12:10:33,14.98363248,0.0002479,69.9999,97.5857,246.4678,113.6221,-0.00057755,-6.983e-05,0.0,0 STARLINK-5062,1 55637U 23021K   23342.50732871 -.00006983  00000-0 -57755-3 0  9991,2 55637  69.9999  97.5857 0002479 246.4678 113.6221 14.98363248 45338,6950.09,96.105,573.678,570.232,0.0
55637.0,STARLINK-5062,PAYLOAD,2023-12-09 12:12:34,14.9833016,0.000295,70.0001,95.0623,264.9693,95.1129,-1.1405e-05,-2.29e-06,0.0,0 STARLINK-5062,1 55637U 23021K   23343.50872878 -.00000229  00000-0 -11405-4 0  9994,2 55637  70.0001  95.0623 0002950 264.9693  95.1129 14.98330160 45489,6950.192,96.107,574.108,570.007,0.0
55637.0,STARLINK-5062,PAYLOAD,2023-12-10 12:14:35,14.98328499,0.0002936,70.0002,92.5374,263.362,96.7205,2.2301e-05,1.73e-06,0.0,0 STARLINK-5062,1 55637U 23021K   23344.51012860  .00000173  00000-0  22301-4 0  9996,2 55637  70.0002  92.5374 0002936 263.3620  96.7205 14.98328499 45633,6950.198,96.107,574.103,570.022,0.0
55637.0,STARLINK-5062,PAYLOAD,2023-12-10 13:50:43,14.98327985,0.0002867,70.0005,92.3697,261.8589,98.2245,1.9948e-05,1.45e-06,0.0,0 STARLINK-5062,1 55637U 23021K   23344.57688903  .00000145  00000-0  19948-4 0  9991,2 55637  70.0005  92.3697 0002867 261.8589  98.2245 14.98327985 45946,6950.199,96.107,574.057,570.072,0.0
55637.0,STARLINK-5062,PAYLOAD,2023-12-10 17:02:59,14.98329343,0.000305,70.0002,92.033,267.7822,92.2988,3.1643e-05,2.85e-06,0.0,0 STARLINK-5062,1 55637U 23021K   23344.71040817  .00000285  00000-0  31643-4 0  9994,2 55637  70.0002  92.0330 0003050 267.7822  92.2988 14.98329343 45964,6950.195,96.107,574.18,569.94,0.0
55637.0,STARLINK-5062,PAYLOAD,2023-12-11 13:52:44,14.98330821,0.0002995,70.0005,89.8457,267.3142,92.7674,8.4062e-06,7e-08,0.0,0 STARLINK-5062,1 55637U 23021K   23345.57828746  .00000007  00000-0  84062-5 0  9990,2 55637  70.0005  89.8457 0002995 267.3142  92.7674 14.98330821 46094,6950.19,96.107,574.137,569.974,0.0
55637.0,STARLINK-5062,PAYLOAD,2023-12-11 17:05:00,14.98331336,0.0003013,70.0005,89.5091,268.4269,91.6544,1.3529e-05,6.8e-07,0.0,0 STARLINK-5062,1 55637U 23021K   23345.71180693  .00000068  00000-0  13529-4 0  9994,2 55637  70.0005  89.5091 0003013 268.4269  91.6544 14.98331336 45814,6950.189,96.107,574.148,569.96,0.0
55637.0,STARLINK-5062,PAYLOAD,2023-12-12 13:54:45,14.9832954,0.0002873,70.0009,87.3211,264.3863,95.6969,1.8741e-06,-7.1e-07,0.0,0 STARLINK-5062,1 55637U 23021K   23346.57968779 -.00000071  00000-0  18741-5 0  9995,2 55637  70.0009  87.3211 0002873 264.3863  95.6969 14.98329540 46243,6950.194,96.107,574.056,570.063,0.0
55637.0,STARLINK-5062,PAYLOAD,2023-12-12 17:07:01,14.98330098,0.0002875,70.0008,86.9841,266.5704,93.5126,1.005e-05,2.7e-07,0.0,0 STARLINK-5062,1 55637U 23021K   23346.71320829  .00000027  00000-0  10050-4 0  9993,2 55637  70.0008  86.9841 0002875 266.5704  93.5126 14.98330098 45966,6950.193,96.107,574.056,570.059,0.0
